GLOBALSTAR M045         
1 25676U 99019A   25199.22290963 -.00000072  00000+0  18946-3 0  9993
2 25676  51.9936 216.8118 0000367 250.2733 189.0446 12.27064140197440
GLOBALSTAR M019         
1 25677U 99019B   25198.39399360 -.00000020  00000+0  72728-3 0  9993
2 25677  51.9901 351.6647 0001632  54.9398 325.3597 12.13873915188816
GLOBALSTAR M044         
1 25678U 99019C   25198.50174406 -.00000100  00000+0 -23418-3 0  9991
2 25678  51.9988 306.5210 0006617 102.2226 340.1783 11.90254763174918
GLOBALSTAR M042         
1 25679U 99019D   25198.83982449 -.00000061  00000+0  28996-3 0  9993
2 25679  52.0038 324.4223 0002763  17.0685 149.0938 12.22084365189009
GLOBALSTAR M025         
1 25770U 99031A   25199.04591140 -.00000063  00000+0  13518-3 0  9993
2 25770  51.9823  87.7857 0001074 192.0155 309.7793 11.22560319142834
GLOBALSTAR M049         
1 25771U 99031B   25198.18964962 -.00000085  00000+0 -66883-3 0  9992
2 25771  51.9867 126.0401 0003313  51.3124 308.7968 11.12117007120768
GLOBALSTAR M047         
1 25772U 99031C   25198.70374191 -.00000055  00000+0  40176-3 0  9993
2 25772  51.9826 118.9285 0016735 317.0824  42.8675 11.31929064474561
GLOBALSTAR M052         
1 25773U 99031D   25198.35489573 -.00000061  00000+0  14612-3 0  9999
2 25773  51.9835 233.9174 0002953 224.9228 222.8117 11.15060223481876
